CUTE-1 (CO-55)          
1 27844U 03031E   25004.82076100  .00000971  00000+0  44399-3 0  9995
2 27844  98.6778  15.1138 0008652 281.2331  78.7875 14.23746699116508
CUBESAT XI-IV (CO-57)   
1 27848U 03031J   25004.76844993  .00000816  00000+0  38089-3 0  9992
2 27848  98.6806  15.1813 0008652 300.0499  59.9821 14.23117855116259
CUBESAT XI-V            
1 28895U 05043F   25004.35455759  .00004461  00000+0  75350-3 0  9995
2 28895  98.2254 147.1100 0015985  82.4596 277.8424 14.69837698 23987
CUTE-1.7+APD II (CO-65) 
1 32785U 08021C   25004.55791984  .00009549  00000+0  74376-3 0  9991
2 32785  97.7705 335.1014 0011202  41.6724 318.5352 15.01386756905642
AAUSAT-II               
1 32788U 08021F   25004.45127433  .00081856  00000+0  20050-2 0  9995
2 32788  97.6055 354.2841 0004968 127.1302 233.0398 15.40435491909138
CANX-2                  
1 32790U 08021H   25004.33240745  .00009518  00000+0  78440-3 0  9999
2 32790  97.7979 333.4241 0013286  34.3783 325.8296 14.99201877905387
SEEDS II (CO-66)        
1 32791U 08021J   25003.91065302  .00018543  00000+0  10746-2 0  9999
2 32791  97.7134 341.3512 0005014  16.2299 343.9090 15.12235199906767
SWISSCUBE               
1 35932U 09051B   25004.75402982  .00002741  00000+0  57419-3 0  9997
2 35932  98.4467 257.9912 0008176  58.6619 301.5380 14.60548793812002
BEESAT-1                
1 35933U 09051C   25004.26018894  .00002871  00000+0  60728-3 0  9990
2 35933  98.4400 258.1078 0006690  71.5876 288.6050 14.60076774811951
ITUPSAT1                
1 35935U 09051E   25004.63099994  .00002127  00000+0  46377-3 0  9991
2 35935  98.4496 258.1465 0008933  76.9540 283.2655 14.58930331811651
TISAT 1                 
1 36799U 10035E   25004.45962180  .00020095  00000+0  12218-2 0  9990
2 36799  98.0697 269.4370 0001854 294.0472  66.0561 15.10493968787352
AEROCUBE 4.5A           
1 38767U 12048K   25004.45179301  .00037960  00000+0  13867-2 0  9998
2 38767  64.6524  21.7060 0110605 316.8119  42.4370 15.22257729290966
AEROCUBE 4.5B           
1 38768U 12048L   25004.76390479  .00170692  00000+0  17631-2 0  9997
2 38768  64.6418 282.0695 0056195 303.7283  55.8514 15.61989721292445
STRAND-1                
1 39090U 13009E   25004.74281338  .00000963  00000+0  34217-3 0  9998
2 39090  98.3767 193.5562 0009092  17.3223 342.8273 14.36562192621199
BRITE-AUSTRIA           
1 39091U 13009F   25004.48818111  .00000727  00000+0  26399-3 0  9995
2 39091  98.3818 192.5803 0010754  24.5960 335.5737 14.36137670621158
NEE-01 PEGASO           
1 39151U 13018B   25004.58095869  .00005558  00000+0  59639-3 0  9990
2 39151  98.0537 130.3638 0015040 100.9839 259.3070 14.88947261631913
ESTCUBE 1               
1 39161U 13021C   25004.62628708  .00003545  00000+0  49140-3 0  9994
2 39161  97.8039  70.9698 0007504 301.7393  58.3086 14.78558438626871
POPACS 1                
1 39268U 13055D   25004.73965036  .00052801 -29231-6  66346-3 0  9990
2 39268  80.9786 275.7325 0317094 152.0131 209.8569 15.17514604592308
POPACS 2                
1 39269U 13055E   25004.32016640  .00022978  00000+0  47997-3 0  9992
2 39269  80.9977  19.3645 0510121  64.9602 300.3659 14.67488193584987
POPACS 3                
1 39270U 13055F   25004.48160575  .00018308  00000+0  48388-3 0  9995
2 39270  81.0067  77.1748 0602716 226.2249 128.7564 14.43112111561934
ZACUBE-1 (TSHEPISOSAT)  
1 39417U 13066B   25004.60794417  .00008272  00000+0  76897-3 0  9997
2 39417  97.7609 322.9581 0045486 210.7449 149.1105 14.93814655601608
WNISAT-1                
1 39423U 13066H   25004.47245558  .00002195  00000+0  41582-3 0  9997
2 39423  97.6645 188.6186 0168419  96.6501 265.3899 14.56446932589721
TRITON-1                
1 39427U 13066M   25004.78926071  .00004816  00000+0  63373-3 0  9995
2 39427  97.8414 282.6590 0098020 150.6006 210.0768 14.77284753596135
DELFI-N3XT              
1 39428U 13066N   25004.74001229  .00009410  00000+0  10437-2 0  9998
2 39428  97.8383 284.5496 0091334 151.2916 209.3371 14.84435395596101
GOMX-1                  
1 39430U 13066Q   25004.57536032  .00004865  00000+0  77658-3 0  9995
2 39430  97.7020 232.7184 0134791 331.8796  27.5173 14.66392025592532
CUBEBUG-2 (LO-74)       
1 39440U 13066AA  25004.82089088  .00008256  00000+0  88345-3 0  9991
2 39440  97.8348 310.8898 0064473 334.9654  24.8439 14.87438776599464
NEE-02 KRYSAOR          
1 39441U 13066AB  25004.79573139  .00005465  00000+0  65281-3 0  9996
2 39441  97.8424 305.7667 0071185   0.6974 359.4326 14.82802349598947
FUNCUBE-1 (AO-73)       
1 39444U 13066AE  25004.15947345  .00011141  00000+0  92617-3 0  9994
2 39444  97.7453 326.3494 0042755 187.7303 172.3265 14.98165263600135
UWE-3                   
1 39446U 13066AG  25004.31344684  .00009635  00000+0  96885-3 0  9997
2 39446  97.8066 316.5751 0054329 277.4133  82.0914 14.90330346598618
BRITE-CA1 (TORONTO)     
1 40020U 14033L   25004.76315005  .00002875  00000+0  45468-3 0  9996
2 40020  97.9021 141.3368 0081456 167.2841 193.0447 14.70848069564599
DUCHIFAT-1              
1 40021U 14033M   25004.83302630  .00026298  00000+0  12651-2 0  9997
2 40021  98.1004   6.7924 0012008 125.7857 234.4493 15.18708654574601
NANOSATC-BR1            
1 40024U 14033Q   25004.70275734  .00017362  00000+0  10157-2 0  9991
2 40024  98.0837 352.6365 0004393 186.1587 173.9588 15.11919831574121
QB50P1                  
1 40025U 14033R   25004.85899412  .00012635  00000+0  86750-3 0  9994
2 40025  98.0691 339.4546 0010026 214.3939 145.6638 15.06090335573673
QB50P2                  
1 40032U 14033Y   25004.35997091  .00013643  00000+0  98036-3 0  9999
2 40032  98.0276 329.1357 0009640 154.7092 205.4607 15.04366102572859
PERSEUS-M2              
1 40037U 14033AD  25004.76879558  .00004452  00000+0  43838-3 0  9994
2 40037  97.9432 302.6856 0010962 247.5168 112.4891 14.92543251572377
PERSEUS-M1              
1 40039U 14033AF  25004.74951619  .00004308  00000+0  42547-3 0  9999
2 40039  97.9193 298.1213 0010811 246.6403 113.3678 14.92444155572235
POLYITAN-1              
1 40042U 14033AJ  25004.85989320  .00016059  00000+0  94618-3 0  9997
2 40042  98.0930 344.9746 0011286 160.3684 199.7982 15.11636099573713
TIGRISAT                
1 40043U 14033AK  25004.39693662  .00004999  00000+0  62940-3 0  9991
2 40043  97.7127 165.0537 0053139   8.4858 351.7241 14.81455276567225
AEROCUBE 6A             
1 40045U 14033AM  25004.40505562  .00010804  00000+0  11368-2 0  9995
2 40045  97.6770 176.8199 0045714 339.7727  20.1678 14.88794393567672
AEROCUBE 6B             
1 40046U 14033AN  25004.44841760  .00011174  00000+0  11471-2 0  9999
2 40046  97.6745 175.7745 0044369 333.9151  25.9831 14.89823542567755
CANX-4                  
1 40055U 14034C   25004.83729213  .00002520  00000+0  34465-3 0  9995
2 40055  98.3764 214.0340 0011972 267.0423  92.9417 14.79472714566387
CANX-5                  
1 40056U 14034D   25004.84104815  .00002576  00000+0  35194-3 0  9993
2 40056  98.3765 214.0516 0011977 267.2505  92.7334 14.79484443566380
UKUBE-1                 
1 40074U 14037F   25004.81128436  .00012417  00000+0  98530-3 0  9996
2 40074  98.3691 314.2743 0003260  86.5572 273.6022 15.00665323568946
BRITE-PL2 (HEWELIUSZ)   
1 40119U 14049B   25004.75592659  .00004345  00000+0  44188-3 0  9995
2 40119  97.8857 109.8980 0016155  62.6106 297.6753 14.91202960562685
AEROCUBE 5C             
1 40965U 15058B   25003.83529304  .00009517  00000+0  80202-3 0  9993
2 40965  64.7693 104.1100 0184605 248.3570 109.7789 14.86342723286828
AEROCUBE 7              
1 40966U 15058C   25004.35259187  .00012527  00000+0  99654-3 0  9997
2 40966  64.7658  94.0493 0177699 247.9521 110.2635 14.89072300287011
FOX-1A (AO-85)          
1 40967U 15058D   25004.51210946  .00010819  00000+0  93081-3 0  9996
2 40967  64.7769 116.6231 0181994 243.7645 114.4661 14.85812238 34866
SINOD-D 1               
1 40968U 15058E   25004.35462530  .00014242  00000+0  11511-2 0  9998
2 40968  64.7771 107.5258 0173900 242.8466 115.4824 14.88879043 37716
SNAP-3 ALICE            
1 40970U 15058G   25004.46885338  .00039535  00000+0  20251-2 0  9991
2 40970  64.7674  49.1091 0126610 241.9782 116.8486 15.09602490 36019
LMRST-SAT               
1 40971U 15058H   25004.49750702  .00010236  00000+0  87962-3 0  9991
2 40971  64.7770 112.2573 0183619 245.1575 113.0345 14.85695800 34866
SNAP-3 EDDIE            
1 40972U 15058J   25004.42484460  .00038931  00000+0  19703-2 0  9999
2 40972  64.7645  42.2008 0127061 242.9553 115.8555 15.09966821 38119
PROPCUBE 3              
1 40973U 15058K   25004.37709471  .00012341  00000+0  10025-2 0  9991
2 40973  64.7705  98.3138 0179246 246.7371 111.4782 14.88140735 35929
BISONSAT                
1 40974U 15058L   25004.32797945  .00023151  00000+0  14718-2 0  9994
2 40974  64.7654  63.8506 0150104 244.9270 113.6204 14.99897630 35837
SNAP-3 JIMI             
1 40975U 15058M   25004.47973743  .00016982  00000+0  12485-2 0  9996
2 40975  64.7683  82.2891 0167087 245.8661 112.4902 14.92985174 35010
PROPCUBE 1 (FLORA)      
1 40976U 15058N   25004.72424044  .00008578  00000+0  76890-3 0  9993
2 40976  64.7756 128.1526 0182744 246.4706 111.7112 14.84393101 37674
SINOD-D 3               
1 40977U 15058P   25004.51826106  .00012113  00000+0  10191-2 0  9997
2 40977  64.7743 119.7283 0174700 245.8323 112.4439 14.87423219 35921
HORYU-4                 
1 41340U 16012D   25004.58684839  .00026979  00000+0  97738-3 0  9993
2 41340  30.9988  93.4761 0006985 227.0250 132.9807 15.27170622488842
RAVAN                   
1 41849U 16067B   25004.49624136  .00027463  00000+0  11587-2 0  9997
2 41849  98.0554 201.2710 0011461  60.8691 299.3690 15.23208424446525
CELTEE 1                
1 41850U 16067C   25004.77212886  .00009688  00000+0  57625-3 0  9998
2 41850  98.1066 191.5139 0000448 131.6585 228.4682 15.11485262445824
